[{"OBJECT_NAME":"ONEWEB-0463","OBJECT_ID":"2022-012AE","EPOCH":"2026-06-13T06:17:04.260768","MEAN_MOTION":13.17649028,"ECCENTRICITY":0.0001944,"INCLINATION":87.9134,"RA_OF_ASC_NODE":6.6604,"ARG_OF_PERICENTER":90.9425,"MEAN_ANOMALY":269.1929,"EPHEMERIS_TYPE":0,"CLASSIFICATION_TYPE":"U","NORAD_CAT_ID":51650,"ELEMENT_SET_NO":999,"REV_AT_EPOCH":21315,"BSTAR":4.9209e-05,"MEAN_MOTION_DOT":3.2e-07,"MEAN_MOTION_DDOT":0.0},{"OBJECT_NAME":"ONEWEB-0464","OBJECT_ID":"2022-012AF","EPOCH":"2026-06-13T03:19:41.460384","MEAN_MOTION":13.10373941,"ECCENTRICITY":0.0001606,"INCLINATION":87.8837,"RA_OF_ASC_NODE":37.0874,"ARG_OF_PERICENTER":75.6595,"MEAN_ANOMALY":284.4711,"EPHEMERIS_TYPE":0,"CLASSIFICATION_TYPE":"U","NORAD_CAT_ID":51651,"ELEMENT_SET_NO":999,"REV_AT_EPOCH":20879,"BSTAR":-0.0018143999999999999,"MEAN_MOTION_DOT":-6.21e-06,"MEAN_MOTION_DDOT":0.0},{"OBJECT_NAME":"ONEWEB-0468","OBJECT_ID":"2022-012AG","EPOCH":"2026-06-13T03:29:15.476928","MEAN_MOTION":13.10375105,"ECCENTRICITY":0.0001566,"INCLINATION":87.8834,"RA_OF_ASC_NODE":37.0806,"ARG_OF_PERICENTER":73.7029,"MEAN_ANOMALY":286.4271,"EPHEMERIS_TYPE":0,"CLASSIFICATION_TYPE":"U","NORAD_CAT_ID":51652,"ELEMENT_SET_NO":999,"REV_AT_EPOCH":20877,"BSTAR":-0.0010834,"MEAN_MOTION_DOT":-3.66e-06,"MEAN_MOTION_DDOT":0.0},{"OBJECT_NAME":"ONEWEB-0473","OBJECT_ID":"2022-012AH","EPOCH":"2026-06-13T04:57:41.622336","MEAN_MOTION":13.10371594,"ECCENTRICITY":0.0001811,"INCLINATION":87.8829,"RA_OF_ASC_NODE":37.0691,"ARG_OF_PERICENTER":78.6067,"MEAN_ANOMALY":281.5264,"EPHEMERIS_TYPE":0,"CLASSIFICATION_TYPE":"U","NORAD_CAT_ID":51653,"ELEMENT_SET_NO":999,"REV_AT_EPOCH":20878,"BSTAR":-0.0016625000000000001,"MEAN_MOTION_DOT":-5.68e-06,"MEAN_MOTION_DDOT":0.0},{"OBJECT_NAME":"ONEWEB-0474","OBJECT_ID":"2022-012AJ","EPOCH":"2026-06-13T04:45:44.747712","MEAN_MOTION":13.10370115,"ECCENTRICITY":0.0001641,"INCLINATION":87.8842,"RA_OF_ASC_NODE":37.0549,"ARG_OF_PERICENTER":72.8895,"MEAN_ANOMALY":287.2412,"EPHEMERIS_TYPE":0,"CLASSIFICATION_TYPE":"U","NORAD_CAT_ID":51654,"ELEMENT_SET_NO":999,"REV_AT_EPOCH":20877,"BSTAR":-0.00049787,"MEAN_MOTION_DOT":-1.61e-06,"MEAN_MOTION_DDOT":0.0},{"OBJECT_NAME":"ONEWEB-0475","OBJECT_ID":"2022-012AK","EPOCH":"2026-06-13T06:34:04.675008","MEAN_MOTION":13.1764886,"ECCENTRICITY":0.000163,"INCLINATION":87.9136,"RA_OF_ASC_NODE":6.6511,"ARG_OF_PERICENTER":67.3026,"MEAN_ANOMALY":292.8278,"EPHEMERIS_TYPE":0,"CLASSIFICATION_TYPE":"U","NORAD_CAT_ID":51655,"ELEMENT_SET_NO":999,"REV_AT_EPOCH":21317,"BSTAR":0.00013492000000000002,"MEAN_MOTION_DOT":6.5e-07,"MEAN_MOTION_DDOT":0.0},{"OBJECT_NAME":"ONEWEB-0490","OBJECT_ID":"2022-138A","EPOCH":"2026-06-13T02:47:27.804192","MEAN_MOTION":13.19724081,"ECCENTRICITY":0.000168,"INCLINATION":87.917,"RA_OF_ASC_NODE":305.7779,"ARG_OF_PERICENTER":99.9971,"MEAN_ANOMALY":260.1352,"EPHEMERIS_TYPE":0,"CLASSIFICATION_TYPE":"U","NORAD_CAT_ID":54113,"ELEMENT_SET_NO":999,"REV_AT_EPOCH":17629,"BSTAR":-4.5981e-05,"MEAN_MOTION_DOT":-5e-08,"MEAN_MOTION_DDOT":0.0},{"OBJECT_NAME":"ONEWEB-0492","OBJECT_ID":"2022-138B","EPOCH":"2026-06-13T03:23:51.927072","MEAN_MOTION":13.19725533,"ECCENTRICITY":0.0001757,"INCLINATION":87.9164,"RA_OF_ASC_NODE":305.7745,"ARG_OF_PERICENTER":105.9714,"MEAN_ANOMALY":254.1613,"EPHEMERIS_TYPE":0,"CLASSIFICATION_TYPE":"U","NORAD_CAT_ID":54114,"ELEMENT_SET_NO":999,"REV_AT_EPOCH":17630,"BSTAR":-2.5063000000000004e-05,"MEAN_MOTION_DOT":3e-08,"MEAN_MOTION_DDOT":0.0},{"OBJECT_NAME":"ONEWEB-0495","OBJECT_ID":"2022-138C","EPOCH":"2026-06-13T02:52:00.731424","MEAN_MOTION":13.1972383,"ECCENTRICITY":0.0001216,"INCLINATION":87.9166,"RA_OF_ASC_NODE":305.7814,"ARG_OF_PERICENTER":102.8545,"MEAN_ANOMALY":257.2724,"EPHEMERIS_TYPE":0,"CLASSIFICATION_TYPE":"U","NORAD_CAT_ID":54115,"ELEMENT_SET_NO":999,"REV_AT_EPOCH":17628,"BSTAR":-5.2563000000000005e-05,"MEAN_MOTION_DOT":-8e-08,"MEAN_MOTION_DDOT":0.0},{"OBJECT_NAME":"ONEWEB-0497","OBJECT_ID":"2022-138D","EPOCH":"2026-06-13T03:10:12.446400","MEAN_MOTION":13.197242,"ECCENTRICITY":0.0001782,"INCLINATION":87.9169,"RA_OF_ASC_NODE":305.7706,"ARG_OF_PERICENTER":99.5823,"MEAN_ANOMALY":260.5511,"EPHEMERIS_TYPE":0,"CLASSIFICATION_TYPE":"U","NORAD_CAT_ID":54116,"ELEMENT_SET_NO":999,"REV_AT_EPOCH":17627,"BSTAR":1.8773e-05,"MEAN_MOTION_DOT":2e-07,"MEAN_MOTION_DDOT":0.0},{"OBJECT_NAME":"ONEWEB-0499","OBJECT_ID":"2022-138E","EPOCH":"2026-06-13T02:46:19.879968","MEAN_MOTION":13.19726813,"ECCENTRICITY":0.0001606,"INCLINATION":87.9163,"RA_OF_ASC_NODE":305.7833,"ARG_OF_PERICENTER":95.2655,"MEAN_ANOMALY":264.8661,"EPHEMERIS_TYPE":0,"CLASSIFICATION_TYPE":"U","NORAD_CAT_ID":54117,"ELEMENT_SET_NO":999,"REV_AT_EPOCH":17628,"BSTAR":0.00015179,"MEAN_MOTION_DOT":7.4e-07,"MEAN_MOTION_DDOT":0.0},{"OBJECT_NAME":"ONEWEB-0500","OBJECT_ID":"2022-138F","EPOCH":"2026-06-13T02:49:43.914432","MEAN_MOTION":13.19723758,"ECCENTRICITY":0.0001914,"INCLINATION":87.9173,"RA_OF_ASC_NODE":305.7767,"ARG_OF_PERICENTER":100.1323,"MEAN_ANOMALY":260.0026,"EPHEMERIS_TYPE":0,"CLASSIFICATION_TYPE":"U","NORAD_CAT_ID":54118,"ELEMENT_SET_NO":999,"REV_AT_EPOCH":17629,"BSTAR":-1.3086000000000001e-05,"MEAN_MOTION_DOT":8e-08,"MEAN_MOTION_DDOT":0.0},{"OBJECT_NAME":"ONEWEB-0501","OBJECT_ID":"2022-138G","EPOCH":"2026-06-13T03:32:56.465664","MEAN_MOTION":13.1972313,"ECCENTRICITY":0.0001401,"INCLINATION":87.9172,"RA_OF_ASC_NODE":305.7704,"ARG_OF_PERICENTER":99.3121,"MEAN_ANOMALY":260.817,"EPHEMERIS_TYPE":0,"CLASSIFICATION_TYPE":"U","NORAD_CAT_ID":54119,"ELEMENT_SET_NO":999,"REV_AT_EPOCH":17627,"BSTAR":-0.00016054,"MEAN_MOTION_DOT":-5.1e-07,"MEAN_MOTION_DDOT":0.0},{"OBJECT_NAME":"ONEWEB-0502","OBJECT_ID":"2022-138H","EPOCH":"2026-06-13T03:12:28.059840","MEAN_MOTION":13.19723955,"ECCENTRICITY":0.0001639,"INCLINATION":87.9174,"RA_OF_ASC_NODE":305.7621,"ARG_OF_PERICENTER":94.1087,"MEAN_ANOMALY":266.0233,"EPHEMERIS_TYPE":0,"CLASSIFICATION_TYPE":"U","NORAD_CAT_ID":54120,"ELEMENT_SET_NO":999,"REV_AT_EPOCH":17629,"BSTAR":3.2835e-05,"MEAN_MOTION_DOT":2.6e-07,"MEAN_MOTION_DDOT":0.0},{"OBJECT_NAME":"ONEWEB-0503","OBJECT_ID":"2022-138J","EPOCH":"2026-06-13T02:56:33.600768","MEAN_MOTION":13.19724168,"ECCENTRICITY":0.0001941,"INCLINATION":87.9175,"RA_OF_ASC_NODE":305.7701,"ARG_OF_PERICENTER":90.4528,"MEAN_ANOMALY":269.6828,"EPHEMERIS_TYPE":0,"CLASSIFICATION_TYPE":"U","NORAD_CAT_ID":54121,"ELEMENT_SET_NO":999,"REV_AT_EPOCH":17628,"BSTAR":5.9382e-05,"MEAN_MOTION_DOT":3.7e-07,"MEAN_MOTION_DDOT":0.0},{"OBJECT_NAME":"ONEWEB-0504","OBJECT_ID":"2022-138K","EPOCH":"2026-06-13T02:38:22.216704","MEAN_MOTION":13.19724854,"ECCENTRICITY":0.0001659,"INCLINATION":87.9174,"RA_OF_ASC_NODE":305.7776,"ARG_OF_PERICENTER":93.114,"MEAN_ANOMALY":267.0182,"EPHEMERIS_TYPE":0,"CLASSIFICATION_TYPE":"U","NORAD_CAT_ID":54122,"ELEMENT_SET_NO":999,"REV_AT_EPOCH":17629,"BSTAR":0.00011983000000000001,"MEAN_MOTION_DOT":6.1e-07,"MEAN_MOTION_DDOT":0.0}]